{
"type": "FeatureCollection",
"name": "field_boundaries",
"crs": { "type": "name", "properties": { "name": "urn:ogc:def:crs:OGC:1.3:CRS84" } },
"features": [
{ "type": "Feature", "properties": { "field_id": "osm-1052414024", "source": "OpenStreetMap/Overpass", "crop_name": "farmland", "state_fips": "19", "county_fips": "109", "county_name": "Kossuth", "area_acres": 38.84 }, "geometry": { "type": "Polygon", "coordinates": [ [ [ -94.2611242, 43.3164762 ], [ -94.2610797, 43.3128748 ], [ -94.2659149, 43.3128736 ], [ -94.2659587, 43.3164864 ], [ -94.2611242, 43.3164762 ] ] ] } },
{ "type": "Feature", "properties": { "field_id": "osm-1360326432", "source": "OpenStreetMap/Overpass", "crop_name": "farmland", "state_fips": "19", "county_fips": "109", "county_name": "Kossuth", "area_acres": 217.75 }, "geometry": { "type": "Polygon", "coordinates": [ [ [ -94.1702262, 43.2415327 ], [ -94.1702791, 43.2422245 ], [ -94.1718636, 43.2422322 ], [ -94.1719324, 43.2415771 ], [ -94.1730805, 43.2415436 ], [ -94.1731653, 43.2486712 ], [ -94.1778633, 43.2486538 ], [ -94.1779215, 43.2553105 ], [ -94.1682239, 43.2553202 ], [ -94.1682846, 43.2415192 ], [ -94.1702262, 43.2415327 ] ] ] } },
{ "type": "Feature", "properties": { "field_id": "osm-1360386537", "source": "OpenStreetMap/Overpass", "crop_name": "farmland", "state_fips": "19", "county_fips": "109", "county_name": "Kossuth", "area_acres": 148.12 }, "geometry": { "type": "Polygon", "coordinates": [ [ [ -94.2559266, 43.2766039 ], [ -94.2559601, 43.2694533 ], [ -94.2599816, 43.2694608 ], [ -94.260015, 43.2699179 ], [ -94.2593898, 43.2699254 ], [ -94.2593898, 43.2705568 ], [ -94.2599996, 43.270568 ], [ -94.2600047, 43.2707478 ], [ -94.2612758, 43.2707741 ], [ -94.2612835, 43.2700978 ], [ -94.2614996, 43.2700921 ], [ -94.2615125, 43.2709895 ], [ -94.2603418, 43.2709745 ], [ -94.2603495, 43.2712368 ], [ -94.2618135, 43.2712537 ], [ -94.2618161, 43.2700397 ], [ -94.2621995, 43.2700247 ], [ -94.2621969, 43.2697793 ], [ -94.2614739, 43.269783 ], [ -94.2614842, 43.2694608 ], [ -94.2656472, 43.2694777 ], [ -94.2656549, 43.2766413 ], [ -94.2559266, 43.2766039 ] ] ] } },
{ "type": "Feature", "properties": { "field_id": "osm-1360394834", "source": "OpenStreetMap/Overpass", "crop_name": "farmland", "state_fips": "19", "county_fips": "109", "county_name": "Kossuth", "area_acres": 25.33 }, "geometry": { "type": "Polygon", "coordinates": [ [ [ -94.2464113, 43.283695 ], [ -94.2463927, 43.2821355 ], [ -94.2535599, 43.2821321 ], [ -94.2536205, 43.2837357 ], [ -94.2464113, 43.283695 ] ] ] } }
]
}
